[{"OBJECT_NAME":"TIANMU-1 15","OBJECT_ID":"2024-004A","EPOCH":"2026-03-09T23:35:22.816608","MEAN_MOTION":15.25840188,"ECCENTRICITY":0.00066612,"INCLINATION":97.4675,"RA_OF_ASC_NODE":255.2203,"ARG_OF_PERICENTER":349.0037,"MEAN_ANOMALY":11.1054,"EPHEMERIS_TYPE":0,"CLASSIFICATION_TYPE":"U","NORAD_CAT_ID":58700,"ELEMENT_SET_NO":999,"REV_AT_EPOCH":12064,"BSTAR":0.0003159702,"MEAN_MOTION_DOT":8.018e-5,"MEAN_MOTION_DDOT":0},{"OBJECT_NAME":"STARLINK-33999","OBJECT_ID":"2025-093X","EPOCH":"2026-03-09T08:42:12.212640","MEAN_MOTION":15.27611111,"ECCENTRICITY":0.00033444,"INCLINATION":43.0059,"RA_OF_ASC_NODE":79.5866,"ARG_OF_PERICENTER":295.8135,"MEAN_ANOMALY":64.2372,"EPHEMERIS_TYPE":0,"CLASSIFICATION_TYPE":"U","NORAD_CAT_ID":63857,"ELEMENT_SET_NO":999,"REV_AT_EPOCH":4792,"BSTAR":0.00096055704,"MEAN_MOTION_DOT":0.00026292,"MEAN_MOTION_DDOT":0}]
